GPS BIIA-10 (PRN 32)    
1 20959U 90103A   14340.87888945  .00000051  00000-0  00000+0 0  5954
2 20959  54.2742 202.0388 0114082 357.7758   2.2683  2.00571527175993
GPS BIIA-14 (PRN 26)    
1 22014U 92039A   14342.01993731 -.00000032  00000-0  00000+0 0  3886
2 22014  55.7525 262.9257 0212007  74.1181 165.0495  2.00562478157734
GPS BIIA-23 (PRN 04)    
1 22877U 93068A   14342.15339648  .00000017  00000-0  00000+0 0  9846
2 22877  53.8127 136.5088 0107673  59.2666 198.3697  2.00554867154733
GPS BIIA-26 (PRN 10)    
1 23953U 96041A   14341.94896301  .00000043  00000-0  00000+0 0  6336
2 23953  53.9491 197.8276 0142301  51.3139 248.5145  2.00566912134804
GPS BIIR-2  (PRN 13)    
1 24876U 97035A   14342.15581462 -.00000032  00000-0  00000+0 0   858
2 24876  55.9040 263.4711 0056758 127.5332 239.6531  2.00305322127343
GPS BIIR-3  (PRN 11)    
1 25933U 99055A   14341.79833145 -.00000011  00000-0  10000-3 0  5110
2 25933  51.1023 118.1947 0154617  78.2993 283.3901  2.00557559111152
GPS BIIR-4  (PRN 20)    
1 26360U 00025A   14342.21319278  .00000040  00000-0  00000+0 0  6306
2 26360  53.0840 193.3221 0060879  76.1498 134.1678  2.00563273106842
GPS BIIR-5  (PRN 28)    
1 26407U 00040A   14342.26020877 -.00000076  00000-0  00000+0 0  5673
2 26407  56.6112  21.0779 0199096 263.0997  96.7683  2.00562914105529
GPS BIIR-6  (PRN 14)    
1 26605U 00071A   14342.12381159 -.00000030  00000-0  00000+0 0  5787
2 26605  55.4747 261.5590 0080024 247.9456 302.6134  2.00553390103125
GPS BIIR-7  (PRN 18)    
1 26690U 01004A   14342.15279525  .00000040  00000-0  00000+0 0  4671
2 26690  53.0192 196.3536 0156978 245.5985  59.5257  2.00554322101527
GPS BIIR-8  (PRN 16)    
1 27663U 03005A   14342.22973848 -.00000076  00000-0  00000+0 0  8979
2 27663  56.6929  20.7606 0077654  11.1363  84.9222  2.00559746 86883
GPS BIIR-9  (PRN 21)    
1 27704U 03010A   14341.69791748  .00000015  00000-0  00000+0 0  7799
2 27704  53.4677 136.5503 0220585 247.1493 146.8797  2.00566285 85671
GPS BIIR-10 (PRN 22)    
1 28129U 03058A   14342.15231240  .00000039  00000-0  00000+0 0  3456
2 28129  52.8931 196.4400 0074988 242.3662  29.3255  2.00558529 80388
GPS BIIR-11 (PRN 19)    
1 28190U 04009A   14341.74518093 -.00000045  00000-0  00000+0 0  3569
2 28190  55.4484  82.6166 0106245  28.2185 353.2107  2.00563424 78557
GPS BIIR-12 (PRN 23)    
1 28361U 04023A   14342.12147825 -.00000026  00000-0  00000+0 0  1634
2 28361  54.4279 257.6154 0097666 205.4103 236.9087  2.00561095 76648
GPS BIIR-13 (PRN 02)    
1 28474U 04045A   14341.94498583  .00000015  00000-0  00000+0 0   661
2 28474  53.8685 135.6297 0142009 225.3946  93.7018  2.00556614 74000
GPS BIIRM-1 (PRN 17)    
1 28874U 05038A   14341.93739043 -.00000046  00000-0  00000+0 0  2999
2 28874  55.6155  79.7343 0100631 241.9222 178.5881  2.00562277 67400
GPS BIIRM-2 (PRN 31)    
1 29486U 06042A   14342.10849503 -.00000081  00000-0  00000+0 0  7251
2 29486  55.9702 319.0308 0084130 324.3667 140.4670  2.00562286 60122
GPS BIIRM-3 (PRN 12)    
1 29601U 06052A   14341.65021431 -.00000075  00000-0  00000+0 0  5310
2 29601  56.6603  19.7160 0049333  25.8664 150.2692  2.00553399 59020
GPS BIIRM-4 (PRN 15)    
1 32260U 07047A   14342.09276054 -.00000024  00000-0  00000+0 0  4449
2 32260  53.5615 254.7735 0069067  16.7875 243.7515  2.00546197 52429
GPS BIIRM-5 (PRN 29)    
1 32384U 07062A   14341.66225821 -.00000047  00000-0  00000+0 0  4750
2 32384  55.6609  80.2731 0013756 303.2762 145.9211  2.00573944 51147
GPS BIIRM-6 (PRN 07)    
1 32711U 08012A   14342.12823471 -.00000081  00000-0  10000-3 0  2220
2 32711  55.6884 318.6287 0081181 204.0414 155.5671  2.00571603 49367
GPS BIIRM-8 (PRN 05)    
1 35752U 09043A   14342.02056601  .00000043  00000-0  00000+0 0  9897
2 35752  54.2474 196.9017 0039442  20.2443 285.0317  2.00556015 38933
GPS BIIF-1  (PRN 25)    
1 36585U 10022A   14342.12306509 -.00000079  00000-0  00000+0 0  8021
2 36585  56.0080  17.1390 0037250  35.7015  89.6718  2.00554972 33185
GPS BIIF-2  (PRN 01)    
1 37753U 11036A   14342.08797550  .00000020  00000-0  00000+0 0  2670
2 37753  55.0957 137.5631 0036361  22.0858 160.6724  2.00563744 24865
GPS BIIF-3  (PRN 24)    
1 38833U 12053A   14341.82256924 -.00000083  00000-0  00000+0 0  8391
2 38833  54.7305 316.4671 0026656   7.5765 352.4506  2.00561252 15929
GPS BIIF-4  (PRN 27)    
1 39166U 13023A   14342.17374804 -.00000047  00000-0  10000-3 0  5961
2 39166  55.3199  77.0467 0015507   6.6539 353.3714  2.00562545 11453
GPS BIIF-5  (PRN 30)    
1 39533U 14008A   14341.67249280 -.00000085  00000-0  00000+0 0  3343
2 39533  54.8683 321.6116 0010218 195.2518 164.7086  2.00568844  5815
GPS BIIF-6  (PRN 06)    
1 39741U 14026A   14341.95420102  .00000019  00000-0  00000+0 0  2197
2 39741  55.0897 137.0784 0004282 148.1516 211.8448  2.00566984  4105
GPS BIIF-7  (PRN 09)    
1 40105U 14045A   14342.04538210 -.00000025  00000-0  00000+0 0  1215
2 40105  54.9397 257.0341 0003043 224.5659 135.4548  2.00559798  2551
GPS BIIF-8  (PRN 03)    
1 40294U 14068A   14334.89668752  .00000055  00000-0  00000+0 0   219
2 40294  54.9751 197.4560 0008330 200.2465 159.8025  1.97605085   637
